{
  "norad_id": 49072,
  "name": "TIANHUI 2-02B",
  "history": [
    {
      "epoch": "2026-03-27T12:31:34.229280Z",
      "apogee_km": 516.9334237570829,
      "perigee_km": 514.4847296306407,
      "latitude_deg": 6.201789202234981e-05,
      "longitude_deg": 77.9686482192858,
      "height_km": 518.5755078903752,
      "semi_major_axis_km": 6893.8460766938615,
      "eccentricity": 0.0001776,
      "inclination_deg": 97.4827,
      "raan_deg": 90.8168,
      "arg_perigee_deg": 79.9145,
      "mean_anomaly_deg": 280.2289,
      "mean_motion_rev_day": 15.16737374
    }
  ]
}